{
  "type": "FeatureCollection",
  "features": [
    {
      "type": "Feature",
      "properties": {
        "norad_id": 34554,
        "name": "COSMOS 2251 DEB",
        "group": "cosmos-2251-debris",
        "lat": -34.98011627301319,
        "lon": 128.61913077668856,
        "alt_km": 784.2408098562864,
        "timestamp": "2025-12-13T18:50:04.824911+00:00",
        "meta_object_name": "COSMOS 2251 DEB",
        "meta_object_id": "1993-036UQ",
        "meta_epoch": "2025-12-12T22:03:19.066752",
        "meta_mean_motion": 14.37939496,
        "meta_eccentricity": 0.00229934,
        "meta_inclination": 74.0385,
        "meta_ra_of_asc_node": 298.6609,
        "meta_arg_of_pericenter": 0.957,
        "meta_mean_anomaly": 55.5895,
        "meta_ephemeris_type": 0,
        "meta_classification_type": "U",
        "meta_norad_cat_id": 34554,
        "meta_element_set_no": 999,
        "meta_rev_at_epoch": 87758,
        "meta_bstar": 0.0005509245,
        "meta_mean_motion_dot": 1.643e-05,
        "meta_mean_motion_ddot": 0,
        "tle_line1": "1 34554U 93036UQ  25346.91897068  .00001643  00000+0  55092-3 0  9997",
        "tle_line2": "2 34554  74.0385 298.6609 0022993   0.9570  55.5895 14.37939496877583"
      },
      "geometry": {
        "type": "Point",
        "coordinates": [
          128.61913077668856,
          -34.98011627301319
        ]
      }
    },
    {
      "type": "Feature",
      "properties": {
        "norad_id": 34556,
        "name": "COSMOS 2251 DEB",
        "group": "cosmos-2251-debris",
        "lat": 14.225803367676473,
        "lon": -61.365185249068176,
        "alt_km": 631.6115036888195,
        "timestamp": "2025-12-13T18:50:04.824922+00:00",
        "meta_object_name": "COSMOS 2251 DEB",
        "meta_object_id": "1993-036US",
        "meta_epoch": "2025-12-13T02:22:07.179744",
        "meta_mean_motion": 14.7782656,
        "meta_eccentricity": 0.00076557,
        "meta_inclination": 74.0156,
        "meta_ra_of_asc_node": 124.15,
        "meta_arg_of_pericenter": 184.6124,
        "meta_mean_anomaly": 291.8866,
        "meta_ephemeris_type": 0,
        "meta_classification_type": "U",
        "meta_norad_cat_id": 34556,
        "meta_element_set_no": 999,
        "meta_rev_at_epoch": 88334,
        "meta_bstar": 0.00346646,
        "meta_mean_motion_dot": 0.00024987,
        "meta_mean_motion_ddot": 0,
        "tle_line1": "1 34556U 93036US  25347.09869421  .00024987  00000+0  34665-2 0  9999",
        "tle_line2": "2 34556  74.0156 124.1500 0007655 184.6124 291.8866 14.77826560883342"
      },
      "geometry": {
        "type": "Point",
        "coordinates": [
          -61.365185249068176,
          14.225803367676473
        ]
      }
    },
    {
      "type": "Feature",
      "properties": {
        "norad_id": 34560,
        "name": "COSMOS 2251 DEB",
        "group": "cosmos-2251-debris",
        "lat": 35.50719923712633,
        "lon": 151.89772883241707,
        "alt_km": 661.5606336604596,
        "timestamp": "2025-12-13T18:50:04.824933+00:00",
        "meta_object_name": "COSMOS 2251 DEB",
        "meta_object_id": "1993-036UW",
        "meta_epoch": "2025-12-13T04:47:51.688320",
        "meta_mean_motion": 14.72161138,
        "meta_eccentricity": 0.00145643,
        "meta_inclination": 74.0165,
        "meta_ra_of_asc_node": 141.2361,
        "meta_arg_of_pericenter": 223.1151,
        "meta_mean_anomaly": 315.6853,
        "meta_ephemeris_type": 0,
        "meta_classification_type": "U",
        "meta_norad_cat_id": 34560,
        "meta_element_set_no": 999,
        "meta_rev_at_epoch": 88258,
        "meta_bstar": 0.0033965318,
        "meta_mean_motion_dot": 0.00021474,
        "meta_mean_motion_ddot": 0,
        "tle_line1": "1 34560U 93036UW  25347.19990380  .00021474  00000+0  33965-2 0  9994",
        "tle_line2": "2 34560  74.0165 141.2361 0014564 223.1151 315.6853 14.72161138882582"
      },
      "geometry": {
        "type": "Point",
        "coordinates": [
          151.89772883241707,
          35.50719923712633
        ]
      }
    },
    {
      "type": "Feature",
      "properties": {
        "norad_id": 34563,
        "name": "COSMOS 2251 DEB",
        "group": "cosmos-2251-debris",
        "lat": 61.404285093945376,
        "lon": -126.57011210024413,
        "alt_km": 737.1434360959602,
        "timestamp": "2025-12-13T18:50:04.824943+00:00",
        "meta_object_name": "COSMOS 2251 DEB",
        "meta_object_id": "1993-036UZ",
        "meta_epoch": "2025-12-12T21:01:49.368576",
        "meta_mean_motion": 14.46511069,
        "meta_eccentricity": 0.00138854,
        "meta_inclination": 74.0377,
        "meta_ra_of_asc_node": 203.4533,
        "meta_arg_of_pericenter": 297.3592,
        "meta_mean_anomaly": 79.416,
        "meta_ephemeris_type": 0,
        "meta_classification_type": "U",
        "meta_norad_cat_id": 34563,
        "meta_element_set_no": 999,
        "meta_rev_at_epoch": 88199,
        "meta_bstar": 0.00068786465,
        "meta_mean_motion_dot": 2.453e-05,
        "meta_mean_motion_ddot": 0,
        "tle_line1": "1 34563U 93036UZ  25346.87626584  .00002453  00000+0  68786-3 0  9999",
        "tle_line2": "2 34563  74.0377 203.4533 0013885 297.3592  79.4160 14.46511069881992"
      },
      "geometry": {
        "type": "Point",
        "coordinates": [
          -126.57011210024413,
          61.404285093945376
        ]
      }
    },
    {
      "type": "Feature",
      "properties": {
        "norad_id": 34564,
        "name": "COSMOS 2251 DEB",
        "group": "cosmos-2251-debris",
        "lat": -2.789965416918598,
        "lon": 56.87832479805413,
        "alt_km": 771.69019504878,
        "timestamp": "2025-12-13T18:50:04.824954+00:00",
        "meta_object_name": "COSMOS 2251 DEB",
        "meta_object_id": "1993-036VA",
        "meta_epoch": "2025-12-12T20:52:29.583840",
        "meta_mean_motion": 14.40690777,
        "meta_eccentricity": 0.00190355,
        "meta_inclination": 74.0323,
        "meta_ra_of_asc_node": 237.7711,
        "meta_arg_of_pericenter": 341.7947,
        "meta_mean_anomaly": 137.3992,
        "meta_ephemeris_type": 0,
        "meta_classification_type": "U",
        "meta_norad_cat_id": 34564,
        "meta_element_set_no": 999,
        "meta_rev_at_epoch": 88008,
        "meta_bstar": 0.00039435837,
        "meta_mean_motion_dot": 1.236e-05,
        "meta_mean_motion_ddot": 0,
        "tle_line1": "1 34564U 93036VA  25346.86978685  .00001236  00000+0  39436-3 0  9999",
        "tle_line2": "2 34564  74.0323 237.7711 0019035 341.7947 137.3992 14.40690777880087"
      },
      "geometry": {
        "type": "Point",
        "coordinates": [
          56.87832479805413,
          -2.789965416918598
        ]
      }
    },
    {
      "type": "Feature",
      "properties": {
        "norad_id": 34567,
        "name": "COSMOS 2251 DEB",
        "group": "cosmos-2251-debris",
        "lat": 13.87125450620124,
        "lon": -29.1527989531227,
        "alt_km": 788.1824943929541,
        "timestamp": "2025-12-13T18:50:04.824965+00:00",
        "meta_object_name": "COSMOS 2251 DEB",
        "meta_object_id": "1993-036VD",
        "meta_epoch": "2025-12-12T22:25:07.639680",
        "meta_mean_motion": 14.2401674,
        "meta_eccentricity": 0.00744441,
        "meta_inclination": 74.0399,
        "meta_ra_of_asc_node": 156.4302,
        "meta_arg_of_pericenter": 230.6412,
        "meta_mean_anomaly": 256.4203,
        "meta_ephemeris_type": 0,
        "meta_classification_type": "U",
        "meta_norad_cat_id": 34567,
        "meta_element_set_no": 999,
        "meta_rev_at_epoch": 87127,
        "meta_bstar": 0.0003371743,
        "meta_mean_motion_dot": 7.71e-06,
        "meta_mean_motion_ddot": 0,
        "tle_line1": "1 34567U 93036VD  25346.93411620  .00000771  00000+0  33717-3 0  9990",
        "tle_line2": "2 34567  74.0399 156.4302 0074444 230.6412 256.4203 14.24016740871277"
      },
      "geometry": {
        "type": "Point",
        "coordinates": [
          -29.1527989531227,
          13.87125450620124
        ]
      }
    },
    {
      "type": "Feature",
      "properties": {
        "norad_id": 34569,
        "name": "COSMOS 2251 DEB",
        "group": "cosmos-2251-debris",
        "lat": -25.15599588919613,
        "lon": -171.50215015333964,
        "alt_km": 741.6084906878623,
        "timestamp": "2025-12-13T18:50:04.824976+00:00",
        "meta_object_name": "COSMOS 2251 DEB",
        "meta_object_id": "1993-036VF",
        "meta_epoch": "2025-12-13T01:07:06.871584",
        "meta_mean_motion": 14.24754233,
        "meta_eccentricity": 0.01573172,
        "meta_inclination": 73.9903,
        "meta_ra_of_asc_node": 197.5813,
        "meta_arg_of_pericenter": 25.8992,
        "meta_mean_anomaly": 124.6777,
        "meta_ephemeris_type": 0,
        "meta_classification_type": "U",
        "meta_norad_cat_id": 34569,
        "meta_element_set_no": 999,
        "meta_rev_at_epoch": 86972,
        "meta_bstar": 0.00069637947,
        "meta_mean_motion_dot": 1.819e-05,
        "meta_mean_motion_ddot": 0,
        "tle_line1": "1 34569U 93036VF  25347.04660731  .00001819  00000+0  69638-3 0  9999",
        "tle_line2": "2 34569  73.9903 197.5813 0157317  25.8992 124.6777 14.24754233869724"
      },
      "geometry": {
        "type": "Point",
        "coordinates": [
          -171.50215015333964,
          -25.15599588919613
        ]
      }
    }
  ]
}